CSS (TIANHE)            
1 48274U 21035A   24031.82953094  .00016586  00000+0  18099-3 0  9991
2 48274  41.4672 202.3634 0008703 276.7304  83.2545 15.62945535157597
